
[
  { "code": "3524170001", "district_code": "3524170", "name": "SAMBIGOLAN", "postal_code": "62254" },
  { "code": "3524170002", "district_code": "3524170", "name": "PALANGAN", "postal_code": "62254" },
  { "code": "3524170003", "district_code": "3524170", "name": "KETAPANGTELU", "postal_code": "62254" },
  { "code": "3524170004", "district_code": "3524170", "name": "PENDOWOKUMPUL", "postal_code": "62254" },
  { "code": "3524170005", "district_code": "3524170", "name": "BANYUBANG", "postal_code": "62254" },
  { "code": "3524170006", "district_code": "3524170", "name": "GAWEREJO", "postal_code": "62254" },
  { "code": "3524170007", "district_code": "3524170", "name": "SUKOREJO", "postal_code": "62254" },
  { "code": "3524170008", "district_code": "3524170", "name": "KARANGBINANGUN", "postal_code": "62254" },
  { "code": "3524170009", "district_code": "3524170", "name": "MAYONG", "postal_code": "62254" },
  { "code": "3524170010", "district_code": "3524170", "name": "SAMBUNGAN", "postal_code": "62254" },
  { "code": "3524170011", "district_code": "3524170", "name": "BLIBRIK", "postal_code": "62254" },
  { "code": "3524170012", "district_code": "3524170", "name": "KRODPLANDON", "postal_code": "62254" },
  { "code": "3524170013", "district_code": "3524170", "name": "WARUK", "postal_code": "62254" },
  { "code": "3524170014", "district_code": "3524170", "name": "BOGOBABADAN", "postal_code": "62254" },
  { "code": "3524170015", "district_code": "3524170", "name": "KURO", "postal_code": "62254" },
  { "code": "3524170016", "district_code": "3524170", "name": "PRINGGOBYO", "postal_code": "62254" },
  { "code": "3524170017", "district_code": "3524170", "name": "WATANGPANJANG", "postal_code": "62254" },
  { "code": "3524170018", "district_code": "3524170", "name": "BARUREJO", "postal_code": "62254" },
  { "code": "3524170019", "district_code": "3524170", "name": "PUTAT", "postal_code": "62254" },
  { "code": "3524170020", "district_code": "3524170", "name": "WINONG", "postal_code": "62254" },
  { "code": "3524170021", "district_code": "3524170", "name": "WINDUSARI", "postal_code": "62254" }
]
